LKW-4                   
1 43236U 18025A   25206.94206810  .00015938  00000+0  40283-3 0  9994
2 43236  97.6051 354.1503 0004474  58.4779 301.6903 15.39876965409495
ZHUHAI-1 OVS-02         
1 43440U 18040B   25206.92186456  .00006192  00000+0  29204-3 0  9991
2 43440  97.0697 239.0718 0003372   2.4982 357.6270 15.19797047403079
ZHUHAI-1 OHS-02         
1 43441U 18040C   25206.75093176  .00008814  00000+0  33209-3 0  9992
2 43441  97.0754 243.9487 0011160 329.5634  30.4957 15.27246725 64489
GAOFEN-6                
1 43484U 18048A   25206.91830787  .00000715  00000+0  10931-3 0  9991
2 43484  97.8212 275.7196 0013596 144.0547 216.1581 14.76614390385247
LUOJIA-1 01             
1 43485U 18048B   25206.75209515  .00002270  00000+0  26970-3 0  9991
2 43485  97.8421 285.0593 0010757 111.3901 248.8462 14.85375618385722
PAKTES 1A               
1 43529U 18056A   25206.91630614  .00002881  00000+0  25536-3 0  9990
2 43529  98.0834 345.9417 0023170 113.9047 246.4604 14.96876722383077
PRSS 1                  
1 43530U 18056B   25206.92669681  .00000876  00000+0  11931-3 0  9995
2 43530  97.8237 278.2453 0001457  82.3430 277.7949 14.81158213380124
HAIYANG-1C              
1 43609U 18068A   25206.73167587  .00000130  00000+0  62318-4 0  9991
2 43609  98.5602 278.0849 0010188 350.3672   9.7316 14.34118938360294
SSTL S1-4               
1 43618U 18071A   25206.92725647  .00000915  00000+0  85920-4 0  9998
2 43618  97.5488  86.1331 0003009 133.6702 226.4770 14.96262375374154
HAIYANG-2B              
1 43655U 18081A   25206.95622484  .00000001  00000+0  43961-4 0  9993
2 43655  99.3333 215.5684 0002078  76.8626 283.2757 13.79305151339956
CZ-4B R/B               
1 43656U 18081B   25206.41517206  .00000149  00000+0  61194-4 0  9991
2 43656  99.3899  93.0856 0205931 127.5957 234.4119 14.31661880352541
CFOSAT                  
1 43662U 18083A   25206.78573189  .00003813  00000+0  20039-3 0  9995
2 43662  97.3624 215.8970 0002694  85.4467 274.7074 15.16263154372974
TEN-KOH                 
1 43677U 18084G   25206.93741941  .00002237  00000+0  18146-3 0  9997
2 43677  98.0840  21.0270 0009060 108.3633 251.8575 15.00747350367190
DIWATA-2B               
1 43678U 18084H   25206.93276018  .00001453  00000+0  12676-3 0  9997
2 43678  98.1068  24.8364 0009008 124.1767 236.0309 14.98507140367327
STARS-AO                
1 43679U 18084J   25206.49703394  .00005217  00000+0  31081-3 0  9994
2 43679  98.0739  36.0203 0002418 167.3756 192.7534 15.11673164368026
AUTCUBE 2               
1 43681U 18084K   25206.93596668  .00004326  00000+0  29651-3 0  9990
2 43681  98.0847  31.2163 0010725  68.1447 292.0919 15.06579712367743
METOP-C                 
1 43689U 18087A   25206.88958427  .00000111  00000+0  70888-4 0  9997
2 43689  98.7132 266.6348 0002030  66.6958 293.4433 14.21498835348471
ES'HAIL 2               
1 43700U 18090A   25206.20032995  .00000132  00000+0  00000+0 0  9991
2 43700   0.0224  75.8349 0000940  52.3443 272.8873  1.00268598 24398
TIANPING 1B             
1 43714U 18094E   25206.91576723  .00085517  00000+0  52884-3 0  9991
2 43714  97.3139 242.5749 0005044 186.7955 173.3244 15.76834665373491
MOHAMMED VI-B           
1 43717U 18095A   25206.93185740  .00000769  00000+0  10903-3 0  9994
2 43717  97.9518 278.9513 0001308  98.4257 261.7102 14.77102118360027
HYSIS                   
1 43719U 18096A   25206.90255107  .00001207  23100-9  16516-3 0  9999
2 43719  98.0284 270.4034 0002027  94.3627 265.7815 14.78596864359200
COSMOS 2530             
1 43751U 18097A   25206.95788694  .00000046  00000+0  26151-3 0  9993
2 43751  82.5117  64.7860 0020282  29.1048 331.1157 12.42867917301760
COSMOS 2531             
1 43752U 18097B   25206.90436400  .00000055  00000+0  32373-3 0  9997
2 43752  82.5162  65.7623 0017375  47.3700 312.8841 12.42861855301777
COSMOS 2532             
1 43753U 18097C   25206.93122918  .00000049  00000+0  28291-3 0  9994
2 43753  82.5107  64.6783 0018906  49.0398 311.2314 12.42860387301749
MINXSS-2                
1 43758U 18099A   25206.74620581  .00014784  00000+0  56062-3 0  9997
2 43758  97.4995 272.9625 0010890   0.8678 359.2577 15.26919030364010
SIRION PATHFINDER-2     
1 43759U 18099B   25206.89965500  .00004990  00000+0  30846-3 0  9997
2 43759  97.4743 258.7175 0009131 355.4520   4.6625 15.10266688363308
AISTECHSAT 2            
1 43768U 18099L   25206.36555812  .00005300  00000+0  32285-3 0  9995
2 43768  97.4794 256.6290 0004877   6.5375 353.5918 15.10794368362854
FOX-1CLIFF (AO-95)      
1 43770U 18099N   25206.60672122  .00008308  00000+0  41210-3 0  9998
2 43770  97.4887 264.1962 0011631  58.7875 301.4497 15.17916100363537
2018-099Q               
1 43772U 18099Q   25206.46169553  .00020434  00000+0  65346-3 0  9993
2 43772  97.4695 271.8365 0002238 298.3851  61.7165 15.32458974364027
RANGE-A                 
1 43773U 18099R   25206.61249943  .00005107  00000+0  32255-3 0  9996
2 43773  97.4452 253.6817 0012038  40.8459 319.3670 15.09435758363168
HIBER-2                 
1 43774U 18099S   25206.72185266  .00033913  00000+0  82075-3 0  9997
2 43774  97.4863 276.8572 0003848 333.9194  26.1858 15.41039043364289
VESTA-1                 
1 43781U 18099Z   25206.72100613  .00038747  00000+0  92445-3 0  9990
2 43781  97.4593 270.2782 0002023  15.2966 344.8341 15.41447083364160
SNUSAT-2                
1 43782U 18099AA  25206.38152939  .00006554  00000+0  35235-3 0  9996
2 43782  97.4567 260.3482 0011581   3.3248 356.8059 15.15157221363430
SNUGLITE                
1 43784U 18099AC  25206.09948922  .00009792  00000+0  48120-3 0  9995
2 43784  97.4383 259.7272 0003370  24.9486 335.1910 15.18242350363546
ITASAT                  
1 43786U 18099AE  25206.10848032  .00006903  00000+0  38916-3 0  9993
2 43786  97.4536 259.4538 0015231  53.9591 306.3049 15.13401278363340
EAGLET-I                
1 43790U 18099AJ  25206.63008746  .00004635  00000+0  29361-3 0  9990
2 43790  97.4734 259.7652 0012724  38.0488 322.1637 15.09372184363019
ESEO                    
1 43792U 18099AL  25206.61490973  .00002381  00000+0  18226-3 0  9991
2 43792  97.4434 252.3899 0012467   8.8198 351.3244 15.02744998362732
CSIM-FD                 
1 43793U 18099AM  25206.75755603  .00571033  13473-3  15512-2 0  9992
2 43793  97.4711 288.6882 0005514 274.9819  85.0826 15.94171860364941
THEA                    
1 43796U 18099AQ  25206.75605956  .00010288  00000+0  44713-3 0  9994
2 43796  97.4912 270.5244 0009375   8.4967 351.6426 15.22439345362821
ASTROCAST 0.1           
1 43798U 18099AS  25206.71916209  .00014731  00000+0  51207-3 0  9991
2 43798  97.4818 274.5171 0006140 317.2911  42.7851 15.29818949364222
JY1SAT (JO-97)          
1 43803U 18099AX  25206.43112498  .00010586  00000+0  47046-3 0  9995
2 43803  97.4636 265.1164 0006709 357.5809   2.5393 15.21684638363748
SUOMI-100               
1 43804U 18099AY  25206.71888850  .00008965  00000+0  42950-3 0  9996
2 43804  97.4698 264.5630 0011541 354.6170   5.4939 15.19102689363709
AL-FARABI 2             
1 43805U 18099AZ  25206.72459141  .00024384  00000+0  71010-3 0  9997
2 43805  97.4521 271.3274 0005005 320.4353  39.6524 15.35385533364256
CENTAURI-1              
1 43809U 18099BD  25206.94299994  .00004839  00000+0  28709-3 0  9993
2 43809  97.4730 260.7404 0016021  23.7607 336.4360 15.11703708363138
GLOBAL-2                
1 43812U 18099BG  25206.61457531  .00003847  00000+0  26823-3 0  9997
2 43812  97.4013 251.4082 0006169 182.7672 177.3523 15.05958119362712
SEAHAWK-1               
1 43820U 18099BQ  25206.61250493  .00007094  00000+0  37505-3 0  9991
2 43820  97.4471 259.7298 0009782  19.9619 340.1994 15.15736980362943
SAUDISAT 5A             
1 43831U 18102A   25206.91313318  .00005038  00000+0  21397-3 0  9995
2 43831  97.3555 269.8615 0010232 198.1751 161.9122 15.23469946365928
SAUDISAT 5B             
1 43833U 18102C   25206.93954264  .00004745  00000+0  19913-3 0  9995
2 43833  97.3639 272.3810 0010827 201.5600 158.5183 15.23897585366037
2018-102D               
1 43834U 18102D   25206.92678977  .00016221  00000+0  40497-3 0  9992
2 43834  97.3789 283.5087 0008189 169.8269 190.3145 15.40217575366664
ISAT                    
1 43879U 18111D   25206.32295049  .00018498  00000+0  61168-3 0  9996
2 43879  97.5923 121.7660 0009712  49.1768 311.0313 15.31362800360690
UWE-4                   
1 43880U 18111E   25206.75592460  .00014733  00000+0  55678-3 0  9999
2 43880  97.5869 120.3541 0013247  55.6222 304.6267 15.27008537360672
D-STAR ONE (SPARROW)    
1 43881U 18111F   25206.33204678  .00019844  00000+0  62950-3 0  9994
2 43881  97.6076 124.8358 0008885  83.3496 276.8756 15.32690181360796
JILIN-1 09              
1 43943U 19005B   25206.94204288  .00004762  00000+0  24870-3 0  9992
2 43943  97.4819 300.5736 0004044 130.8555 229.3029 15.16375339359632
JILIN-1 10              
1 43946U 19005E   25206.90020700  .00004866  00000+0  22553-3 0  9997
2 43946  97.4826 301.9651 0008405 354.5877   5.5266 15.20520046359641
EGYPTSAT-A (MISRSAT-A)  
1 44047U 19008A   25206.72591464  .00000604  00000+0  10358-3 0  9999
2 44047  98.0180 271.2706 0000994  88.6062 271.5259 14.72238609345201
EMISAT                  
1 44078U 19018A   25206.90929284  .00000237  00000+0  82087-4 0  9990
2 44078  98.2844 262.6744 0019405 119.3000 241.0133 14.43742757332987
JILIN-1 GAOFEN 3A       
1 44312U 19032C   25206.76263974  .00009128  00000+0  38596-3 0  9991
2 44312  44.9804 341.1979 0012363 240.4105 119.5545 15.23521138337903
XIAOXIANG 4             
1 44313U 19032D   25206.47898725  .00069610  00000+0  85671-3 0  9996
2 44313  44.9877 265.8111 0015789 334.7414  25.2707 15.59255149338896
WT 1A                   
1 44315U 19032F   25206.68874786  .00024202  00000+0  58789-3 0  9990
2 44315  44.9852 287.2713 0016537 300.9851  58.9412 15.40500772338553
